{
  "type": "FeatureCollection",
  "features": [
    {
      "type": "Feature",
      "properties": {
        "norad_id": 66998,
        "name": "2025-292F",
        "group": "last-30-days",
        "lat": -14.431417196682498,
        "lon": 75.57428680370165,
        "alt_km": 561.6126446476146,
        "timestamp": "2025-12-27T03:58:42.934042+00:00",
        "meta_object_name": "2025-292F",
        "meta_object_id": "2025-292F",
        "meta_epoch": "2025-12-26T20:03:52.966944",
        "meta_mean_motion": 15.04973891,
        "meta_eccentricity": 0.0015481,
        "meta_inclination": 97.6528,
        "meta_ra_of_asc_node": 73.2646,
        "meta_arg_of_pericenter": 226.9374,
        "meta_mean_anomaly": 133.0557,
        "meta_ephemeris_type": 0,
        "meta_classification_type": "U",
        "meta_norad_cat_id": 66998,
        "meta_element_set_no": 999,
        "meta_rev_at_epoch": 251,
        "meta_bstar": 0.00047214,
        "meta_mean_motion_dot": 6.652e-05,
        "meta_mean_motion_ddot": 0,
        "tle_line1": "1 66998U 25292F   25360.83602971  .00006652  00000+0  47214-3 0  9999",
        "tle_line2": "2 66998  97.6528  73.2646 0015481 226.9374 133.0557 15.04973891  2516"
      },
      "geometry": {
        "type": "Point",
        "coordinates": [
          75.57428680370165,
          -14.431417196682498
        ]
      }
    },
    {
      "type": "Feature",
      "properties": {
        "norad_id": 66999,
        "name": "2025-292G",
        "group": "last-30-days",
        "lat": -10.58993421979294,
        "lon": 75.0355194078777,
        "alt_km": 561.136209012604,
        "timestamp": "2025-12-27T03:58:42.934051+00:00",
        "meta_object_name": "2025-292G",
        "meta_object_id": "2025-292G",
        "meta_epoch": "2025-12-26T20:02:52.168128",
        "meta_mean_motion": 15.05038103,
        "meta_eccentricity": 0.0014979,
        "meta_inclination": 97.6538,
        "meta_ra_of_asc_node": 73.2673,
        "meta_arg_of_pericenter": 228.9456,
        "meta_mean_anomaly": 131.0477,
        "meta_ephemeris_type": 0,
        "meta_classification_type": "U",
        "meta_norad_cat_id": 66999,
        "meta_element_set_no": 999,
        "meta_rev_at_epoch": 251,
        "meta_bstar": 0.00047053,
        "meta_mean_motion_dot": 6.639e-05,
        "meta_mean_motion_ddot": 0,
        "tle_line1": "1 66999U 25292G   25360.83532602  .00006639  00000+0  47053-3 0  9999",
        "tle_line2": "2 66999  97.6538  73.2673 0014979 228.9456 131.0477 15.05038103  2510"
      },
      "geometry": {
        "type": "Point",
        "coordinates": [
          75.0355194078777,
          -10.58993421979294
        ]
      }
    },
    {
      "type": "Feature",
      "properties": {
        "norad_id": 67000,
        "name": "2025-292H",
        "group": "last-30-days",
        "lat": -9.72672751328886,
        "lon": 74.91892673543744,
        "alt_km": 561.0723241575097,
        "timestamp": "2025-12-27T03:58:42.934060+00:00",
        "meta_object_name": "2025-292H",
        "meta_object_id": "2025-292H",
        "meta_epoch": "2025-12-26T20:02:38.927328",
        "meta_mean_motion": 15.05073758,
        "meta_eccentricity": 0.0014925,
        "meta_inclination": 97.6551,
        "meta_ra_of_asc_node": 73.2701,
        "meta_arg_of_pericenter": 228.7571,
        "meta_mean_anomaly": 131.237,
        "meta_ephemeris_type": 0,
        "meta_classification_type": "U",
        "meta_norad_cat_id": 67000,
        "meta_element_set_no": 999,
        "meta_rev_at_epoch": 238,
        "meta_bstar": 0.00056534,
        "meta_mean_motion_dot": 7.999e-05,
        "meta_mean_motion_ddot": 0,
        "tle_line1": "1 67000U 25292H   25360.83517277  .00007999  00000+0  56534-3 0  9998",
        "tle_line2": "2 67000  97.6551  73.2701 0014925 228.7571 131.2370 15.05073758  2382"
      },
      "geometry": {
        "type": "Point",
        "coordinates": [
          74.91892673543744,
          -9.72672751328886
        ]
      }
    },
    {
      "type": "Feature",
      "properties": {
        "norad_id": 67001,
        "name": "2025-292J",
        "group": "last-30-days",
        "lat": -45.77928516199242,
        "lon": 81.5193582970008,
        "alt_km": 561.1801577037586,
        "timestamp": "2025-12-27T03:58:42.934070+00:00",
        "meta_object_name": "2025-292J",
        "meta_object_id": "2025-292J",
        "meta_epoch": "2025-12-26T20:12:11.030976",
        "meta_mean_motion": 15.04453575,
        "meta_eccentricity": 0.0015187,
        "meta_inclination": 97.6525,
        "meta_ra_of_asc_node": 73.2571,
        "meta_arg_of_pericenter": 218.1777,
        "meta_mean_anomaly": 141.8375,
        "meta_ephemeris_type": 0,
        "meta_classification_type": "U",
        "meta_norad_cat_id": 67001,
        "meta_element_set_no": 999,
        "meta_rev_at_epoch": 251,
        "meta_bstar": 0.00043706,
        "meta_mean_motion_dot": 6.066e-05,
        "meta_mean_motion_ddot": 0,
        "tle_line1": "1 67001U 25292J   25360.84179434  .00006066  00000+0  43706-3 0  9990",
        "tle_line2": "2 67001  97.6525  73.2571 0015187 218.1777 141.8375 15.04453575  2516"
      },
      "geometry": {
        "type": "Point",
        "coordinates": [
          81.5193582970008,
          -45.77928516199242
        ]
      }
    },
    {
      "type": "Feature",
      "properties": {
        "norad_id": 67002,
        "name": "ZK-1A R/B",
        "group": "last-30-days",
        "lat": -69.27308328673787,
        "lon": -125.86228346054953,
        "alt_km": 330.29646213842443,
        "timestamp": "2025-12-27T03:58:42.934080+00:00",
        "meta_object_name": "ZK-1A R/B",
        "meta_object_id": "2025-292K",
        "meta_epoch": "2025-12-26T19:11:21.253056",
        "meta_mean_motion": 15.59097247,
        "meta_eccentricity": 0.0203923,
        "meta_inclination": 97.7195,
        "meta_ra_of_asc_node": 74.7466,
        "meta_arg_of_pericenter": 313.985,
        "meta_mean_anomaly": 44.4744,
        "meta_ephemeris_type": 0,
        "meta_classification_type": "U",
        "meta_norad_cat_id": 67002,
        "meta_element_set_no": 999,
        "meta_rev_at_epoch": 258,
        "meta_bstar": 0.00072479,
        "meta_mean_motion_dot": 0.00158194,
        "meta_mean_motion_ddot": 8.9569e-06,
        "tle_line1": "1 67002U 25292K   25360.79955154  .00158194  89569-5  72479-3 0  9998",
        "tle_line2": "2 67002  97.7195  74.7466 0203923 313.9850  44.4744 15.59097247  2588"
      },
      "geometry": {
        "type": "Point",
        "coordinates": [
          -125.86228346054953,
          -69.27308328673787
        ]
      }
    },
    {
      "type": "Feature",
      "properties": {
        "norad_id": 67003,
        "name": "STARLINK-35660",
        "group": "last-30-days",
        "lat": -4.8781131415547625,
        "lon": -79.60816162862183,
        "alt_km": 359.9065591321387,
        "timestamp": "2025-12-27T03:58:42.934090+00:00",
        "meta_object_name": "STARLINK-35660",
        "meta_object_id": "2025-293A",
        "meta_epoch": "2025-12-26T20:00:01.999008",
        "meta_mean_motion": 15.72038932,
        "meta_eccentricity": 0.0003756,
        "meta_inclination": 69.9974,
        "meta_ra_of_asc_node": 283.1097,
        "meta_arg_of_pericenter": 260.0383,
        "meta_mean_anomaly": 14.9053,
        "meta_ephemeris_type": 0,
        "meta_classification_type": "U",
        "meta_norad_cat_id": 67003,
        "meta_element_set_no": 999,
        "meta_rev_at_epoch": 243,
        "meta_bstar": -0.014703,
        "meta_mean_motion_dot": -0.01706461,
        "meta_mean_motion_ddot": 0,
        "tle_line1": "1 67003U 25293A   25360.83335647 -.01706461  00000+0 -14703-1 0  9994",
        "tle_line2": "2 67003  69.9974 283.1097 0003756 260.0383  14.9053 15.72038932  2436"
      },
      "geometry": {
        "type": "Point",
        "coordinates": [
          -79.60816162862183,
          -4.8781131415547625
        ]
      }
    },
    {
      "type": "Feature",
      "properties": {
        "norad_id": 67004,
        "name": "STARLINK-35913",
        "group": "last-30-days",
        "lat": -2.9087941427936914,
        "lon": -78.88994238676034,
        "alt_km": 359.73935483793866,
        "timestamp": "2025-12-27T03:58:42.934099+00:00",
        "meta_object_name": "STARLINK-35913",
        "meta_object_id": "2025-293B",
        "meta_epoch": "2025-12-26T20:00:01.999008",
        "meta_mean_motion": 15.72008425,
        "meta_eccentricity": 0.0003662,
        "meta_inclination": 69.9972,
        "meta_ra_of_asc_node": 283.1069,
        "meta_arg_of_pericenter": 260.3377,
        "meta_mean_anomaly": 16.7226,
        "meta_ephemeris_type": 0,
        "meta_classification_type": "U",
        "meta_norad_cat_id": 67004,
        "meta_element_set_no": 999,
        "meta_rev_at_epoch": 243,
        "meta_bstar": -0.014376,
        "meta_mean_motion_dot": -0.01670764,
        "meta_mean_motion_ddot": 0,
        "tle_line1": "1 67004U 25293B   25360.83335647 -.01670764  00000+0 -14376-1 0  9997",
        "tle_line2": "2 67004  69.9972 283.1069 0003662 260.3377  16.7226 15.72008425  2432"
      },
      "geometry": {
        "type": "Point",
        "coordinates": [
          -78.88994238676034,
          -2.9087941427936914
        ]
      }
    }
  ]
}